{
  "type": "FeatureCollection",
  "features": [
    {
      "type": "Feature",
      "properties": {
        "norad_id": 25590,
        "name": "COSMOS 2361",
        "group": "musson",
        "lat": 39.5036575965297,
        "lon": -19.698863764889047,
        "alt_km": 1007.087677073986,
        "timestamp": "2025-12-25T19:00:39.620502+00:00",
        "meta_object_name": "COSMOS 2361",
        "meta_object_id": "1998-076A",
        "meta_epoch": "2025-12-25T01:40:40.592928",
        "meta_mean_motion": 13.73218824,
        "meta_eccentricity": 0.00303178,
        "meta_inclination": 82.9345,
        "meta_ra_of_asc_node": 334.9664,
        "meta_arg_of_pericenter": 229.9139,
        "meta_mean_anomaly": 201.6823,
        "meta_ephemeris_type": 0,
        "meta_classification_type": "U",
        "meta_norad_cat_id": 25590,
        "meta_element_set_no": 999,
        "meta_rev_at_epoch": 35280,
        "meta_bstar": 4.9101775e-05,
        "meta_mean_motion_dot": 6e-07,
        "meta_mean_motion_ddot": 0,
        "tle_line1": "1 25590U 98076A   25359.06991427  .00000060  00000+0  49102-4 0  9998",
        "tle_line2": "2 25590  82.9345 334.9664 0030317 229.9139 201.6823 13.73218824352807"
      },
      "geometry": {
        "type": "Point",
        "coordinates": [
          -19.698863764889047,
          39.5036575965297
        ]
      }
    },
    {
      "type": "Feature",
      "properties": {
        "norad_id": 26818,
        "name": "COSMOS 2378",
        "group": "musson",
        "lat": 23.87617493686538,
        "lon": 166.8959403325911,
        "alt_km": 960.2531981813281,
        "timestamp": "2025-12-25T19:00:39.620523+00:00",
        "meta_object_name": "COSMOS 2378",
        "meta_object_id": "2001-023A",
        "meta_epoch": "2025-12-25T02:52:27.994944",
        "meta_mean_motion": 13.7414296,
        "meta_eccentricity": 0.00331845,
        "meta_inclination": 82.9272,
        "meta_ra_of_asc_node": 350.5445,
        "meta_arg_of_pericenter": 170.2004,
        "meta_mean_anomaly": 261.4901,
        "meta_ephemeris_type": 0,
        "meta_classification_type": "U",
        "meta_norad_cat_id": 26818,
        "meta_element_set_no": 999,
        "meta_rev_at_epoch": 23093,
        "meta_bstar": 3.3956905e-05,
        "meta_mean_motion_dot": 4.7e-07,
        "meta_mean_motion_ddot": 0,
        "tle_line1": "1 26818U 01023A   25359.11976846  .00000047  00000+0  33957-4 0  9998",
        "tle_line2": "2 26818  82.9272 350.5445 0033184 170.2004 261.4901 13.74142960230933"
      },
      "geometry": {
        "type": "Point",
        "coordinates": [
          166.8959403325911,
          23.87617493686538
        ]
      }
    },
    {
      "type": "Feature",
      "properties": {
        "norad_id": 27436,
        "name": "COSMOS 2389",
        "group": "musson",
        "lat": 49.97685235254258,
        "lon": -54.20507719097013,
        "alt_km": 945.2208568133829,
        "timestamp": "2025-12-25T19:00:39.620536+00:00",
        "meta_object_name": "COSMOS 2389",
        "meta_object_id": "2002-026A",
        "meta_epoch": "2025-12-24T22:06:49.893984",
        "meta_mean_motion": 13.75155957,
        "meta_eccentricity": 0.0047094,
        "meta_inclination": 82.9513,
        "meta_ra_of_asc_node": 297.9672,
        "meta_arg_of_pericenter": 27.4918,
        "meta_mean_anomaly": 34.7494,
        "meta_ephemeris_type": 0,
        "meta_classification_type": "U",
        "meta_norad_cat_id": 27436,
        "meta_element_set_no": 999,
        "meta_rev_at_epoch": 18316,
        "meta_bstar": 6.8126e-05,
        "meta_mean_motion_dot": 8.1e-07,
        "meta_mean_motion_ddot": 0,
        "tle_line1": "1 27436U 02026A   25358.92141081  .00000081  00000+0  68126-4 0  9996",
        "tle_line2": "2 27436  82.9513 297.9672 0047094  27.4918  34.7494 13.75155957183167"
      },
      "geometry": {
        "type": "Point",
        "coordinates": [
          -54.20507719097013,
          49.97685235254258
        ]
      }
    },
    {
      "type": "Feature",
      "properties": {
        "norad_id": 27818,
        "name": "COSMOS 2398",
        "group": "musson",
        "lat": -52.719051293534385,
        "lon": 92.43769954188183,
        "alt_km": 1020.0181984406645,
        "timestamp": "2025-12-25T19:00:39.620548+00:00",
        "meta_object_name": "COSMOS 2398",
        "meta_object_id": "2003-023A",
        "meta_epoch": "2025-12-25T06:11:43.168128",
        "meta_mean_motion": 13.72387095,
        "meta_eccentricity": 0.00326943,
        "meta_inclination": 82.9483,
        "meta_ra_of_asc_node": 263.4738,
        "meta_arg_of_pericenter": 78.461,
        "meta_mean_anomaly": 37.8825,
        "meta_ephemeris_type": 0,
        "meta_classification_type": "U",
        "meta_norad_cat_id": 27818,
        "meta_element_set_no": 999,
        "meta_rev_at_epoch": 12988,
        "meta_bstar": 6.9939635e-05,
        "meta_mean_motion_dot": 8e-07,
        "meta_mean_motion_ddot": 0,
        "tle_line1": "1 27818U 03023A   25359.25813852  .00000080  00000+0  69940-4 0  9991",
        "tle_line2": "2 27818  82.9483 263.4738 0032694  78.4610  37.8825 13.72387095129881"
      },
      "geometry": {
        "type": "Point",
        "coordinates": [
          92.43769954188183,
          -52.719051293534385
        ]
      }
    },
    {
      "type": "Feature",
      "properties": {
        "norad_id": 28380,
        "name": "COSMOS 2407",
        "group": "musson",
        "lat": -71.44414247046073,
        "lon": 44.83007109563889,
        "alt_km": 1001.5558751136687,
        "timestamp": "2025-12-25T19:00:39.620559+00:00",
        "meta_object_name": "COSMOS 2407",
        "meta_object_id": "2004-028A",
        "meta_epoch": "2025-12-25T02:40:13.473120",
        "meta_mean_motion": 13.76315024,
        "meta_eccentricity": 0.00397398,
        "meta_inclination": 82.9593,
        "meta_ra_of_asc_node": 203.7326,
        "meta_arg_of_pericenter": 21.0232,
        "meta_mean_anomaly": 100.5296,
        "meta_ephemeris_type": 0,
        "meta_classification_type": "U",
        "meta_norad_cat_id": 28380,
        "meta_element_set_no": 999,
        "meta_rev_at_epoch": 7593,
        "meta_bstar": 3.7652356e-05,
        "meta_mean_motion_dot": 5.2e-07,
        "meta_mean_motion_ddot": 0,
        "tle_line1": "1 28380U 04028A   25359.11126705  .00000052  00000+0  37652-4 0  9995",
        "tle_line2": "2 28380  82.9593 203.7326 0039739  21.0232 100.5296 13.76315024 75932"
      },
      "geometry": {
        "type": "Point",
        "coordinates": [
          44.83007109563889,
          -71.44414247046073
        ]
      }
    },
    {
      "type": "Feature",
      "properties": {
        "norad_id": 28521,
        "name": "COSMOS 2414",
        "group": "musson",
        "lat": -19.92427373853919,
        "lon": 172.21837935936554,
        "alt_km": 957.6922386038996,
        "timestamp": "2025-12-25T19:00:39.620570+00:00",
        "meta_object_name": "COSMOS 2414",
        "meta_object_id": "2005-002A",
        "meta_epoch": "2025-12-25T00:04:31.766016",
        "meta_mean_motion": 13.87904522,
        "meta_eccentricity": 0.00414146,
        "meta_inclination": 82.9488,
        "meta_ra_of_asc_node": 175.3864,
        "meta_arg_of_pericenter": 105.6791,
        "meta_mean_anomaly": 254.8947,
        "meta_ephemeris_type": 0,
        "meta_classification_type": "U",
        "meta_norad_cat_id": 28521,
        "meta_element_set_no": 999,
        "meta_rev_at_epoch": 5965,
        "meta_bstar": 4.4725903e-05,
        "meta_mean_motion_dot": 7e-07,
        "meta_mean_motion_ddot": 0,
        "tle_line1": "1 28521U 05002A   25359.00314544  .00000070  00000+0  44726-4 0  9993",
        "tle_line2": "2 28521  82.9488 175.3864 0041414 105.6791 254.8947 13.87904522 59651"
      },
      "geometry": {
        "type": "Point",
        "coordinates": [
          172.21837935936554,
          -19.92427373853919
        ]
      }
    },
    {
      "type": "Feature",
      "properties": {
        "norad_id": 32052,
        "name": "COSMOS 2429",
        "group": "musson",
        "lat": -55.008630239206425,
        "lon": 163.82364174386703,
        "alt_km": 1004.8864099013945,
        "timestamp": "2025-12-25T19:00:39.620581+00:00",
        "meta_object_name": "COSMOS 2429",
        "meta_object_id": "2007-038A",
        "meta_epoch": "2025-12-25T00:24:17.509248",
        "meta_mean_motion": 13.75150565,
        "meta_eccentricity": 0.00385111,
        "meta_inclination": 82.9808,
        "meta_ra_of_asc_node": 334.2578,
        "meta_arg_of_pericenter": 4.0546,
        "meta_mean_anomaly": 356.0915,
        "meta_ephemeris_type": 0,
        "meta_classification_type": "U",
        "meta_norad_cat_id": 32052,
        "meta_element_set_no": 999,
        "meta_rev_at_epoch": 91771,
        "meta_bstar": 4.6345808e-05,
        "meta_mean_motion_dot": 6e-07,
        "meta_mean_motion_ddot": 0,
        "tle_line1": "1 32052U 07038A   25359.01686932  .00000060  00000+0  46346-4 0  9991",
        "tle_line2": "2 32052  82.9808 334.2578 0038511   4.0546 356.0915 13.75150565917710"
      },
      "geometry": {
        "type": "Point",
        "coordinates": [
          163.82364174386703,
          -55.008630239206425
        ]
      }
    },
    {
      "type": "Feature",
      "properties": {
        "norad_id": 35635,
        "name": "COSMOS 2454",
        "group": "musson",
        "lat": 53.43653827843729,
        "lon": -30.846105370652047,
        "alt_km": 923.177132087606,
        "timestamp": "2025-12-25T19:00:39.620591+00:00",
        "meta_object_name": "COSMOS 2454",
        "meta_object_id": "2009-039A",
        "meta_epoch": "2025-12-24T23:57:14.333184",
        "meta_mean_motion": 13.89930197,
        "meta_eccentricity": 0.00200053,
        "meta_inclination": 82.9558,
        "meta_ra_of_asc_node": 159.3524,
        "meta_arg_of_pericenter": 40.6876,
        "meta_mean_anomaly": 74.0739,
        "meta_ephemeris_type": 0,
        "meta_classification_type": "U",
        "meta_norad_cat_id": 35635,
        "meta_element_set_no": 999,
        "meta_rev_at_epoch": 83320,
        "meta_bstar": 5.6949105e-05,
        "meta_mean_motion_dot": 8.6e-07,
        "meta_mean_motion_ddot": 0,
        "tle_line1": "1 35635U 09039A   25358.99808256  .00000086  00000+0  56949-4 0  9993",
        "tle_line2": "2 35635  82.9558 159.3524 0020005  40.6876  74.0739 13.89930197833204"
      },
      "geometry": {
        "type": "Point",
        "coordinates": [
          -30.846105370652047,
          53.43653827843729
        ]
      }
    },
    {
      "type": "Feature",
      "properties": {
        "norad_id": 36519,
        "name": "COSMOS 2463",
        "group": "musson",
        "lat": 28.04967328542097,
        "lon": 20.89543068038391,
        "alt_km": 1011.3440445880778,
        "timestamp": "2025-12-25T19:00:39.620602+00:00",
        "meta_object_name": "COSMOS 2463",
        "meta_object_id": "2010-017A",
        "meta_epoch": "2025-12-24T23:55:31.767744",
        "meta_mean_motion": 13.716502,
        "meta_eccentricity": 0.00348043,
        "meta_inclination": 82.9603,
        "meta_ra_of_asc_node": 17.7047,
        "meta_arg_of_pericenter": 252.7721,
        "meta_mean_anomaly": 170.7477,
        "meta_ephemeris_type": 0,
        "meta_classification_type": "U",
        "meta_norad_cat_id": 36519,
        "meta_element_set_no": 999,
        "meta_rev_at_epoch": 78405,
        "meta_bstar": 3.3999158e-05,
        "meta_mean_motion_dot": 4.6e-07,
        "meta_mean_motion_ddot": 0,
        "tle_line1": "1 36519U 10017A   25358.99689546  .00000046  00000+0  33999-4 0  9998",
        "tle_line2": "2 36519  82.9603  17.7047 0034804 252.7721 170.7477 13.71650200784057"
      },
      "geometry": {
        "type": "Point",
        "coordinates": [
          20.89543068038391,
          28.04967328542097
        ]
      }
    }
  ]
}